NORAD_CAT_ID,OBJECT_NAME,OBJECT_TYPE,EPOCH,MEAN_MOTION,ECCENTRICITY,INCLINATION,RA_OF_ASC_NODE,ARG_OF_PERICENTER,MEAN_ANOMALY,BSTAR,MEAN_MOTION_DOT,MEAN_MOTION_DDOT,TLE_LINE0,TLE_LINE1,TLE_LINE2,SEMIMAJOR_AXIS,PERIOD,APOGEE,PERIGEE,DECAYED
54804.0,STARLINK-5422,PAYLOAD,2023-01-06 22:07:52,15.73233256,0.0001595,53.2127,206.5936,52.293,307.8235,0.0001911,0.00026322,0.0,0 STARLINK-5422,1 54804U 22175AY  23006.92213898  .00026322  00000-0  19110-3 0  9991,2 54804  53.2127 206.5936 0001595  52.2930 307.8235 15.73233256  5061,6727.8,91.531,350.73800000000006,348.592,0.0
54804.0,STARLINK-5422,PAYLOAD,2023-01-07 19:28:35,15.73216274,0.000133,53.2135,202.1909,34.3903,325.7203,-2.4775e-05,-4.098e-05,0.0,0 STARLINK-5422,1 54804U 22175AY  23007.81151835 -.00004098  00000-0 -24775-4 0  9994,2 54804  53.2135 202.1909 0001330  34.3903 325.7203 15.73216274  3041,6727.849,91.532,350.6090000000001,348.819,0.0
54804.0,STARLINK-5422,PAYLOAD,2023-01-08 12:14:53,15.73196493,0.0001421,53.2107,198.7333,58.2034,301.9124,2.4075e-05,2.759e-05,0.0,0 STARLINK-5422,1 54804U 22175AY  23008.51033705  .00002759  00000-0  24075-4 0  9990,2 54804  53.2107 198.7333 0001421  58.2034 301.9124 15.73196493  3152,6727.905,91.533,350.726,348.814,0.0
54804.0,STARLINK-5422,PAYLOAD,2023-01-08 13:46:22,15.73198364,0.0001491,53.2117,198.4198,54.5858,305.5301,4.0535e-05,5.072e-05,0.0,0 STARLINK-5422,1 54804U 22175AY  23008.57386629  .00005072  00000-0  40535-4 0  9992,2 54804  53.2117 198.4198 0001491  54.5858 305.5301 15.73198364  5326,6727.9,91.533,350.7680000000001,348.76199999999994,0.0
54804.0,STARLINK-5422,PAYLOAD,2023-01-09 05:01:10,15.73201396,0.0001238,53.2137,195.2739,69.0107,291.1045,9.4854e-05,0.00012713,0.0,0 STARLINK-5422,1 54804U 22175AY  23009.20915195  .00012713  00000-0  94854-4 0  9992,2 54804  53.2137 195.2739 0001238  69.0107 291.1045 15.73201396  5427,6727.891,91.533,350.589,348.923,0.0
54804.0,STARLINK-5422,PAYLOAD,2023-01-09 14:10:03,15.73212954,0.0001326,53.2141,193.3877,68.2458,291.8704,0.00010171,0.00013685,0.0,0 STARLINK-5422,1 54804U 22175AY  23009.59031891  .00013685  00000-0  10171-3 0  9994,2 54804  53.2141 193.3877 0001326  68.2458 291.8704 15.73212954  3320,6727.858,91.532,350.615,348.831,0.0
54804.0,STARLINK-5422,PAYLOAD,2023-01-09 21:47:27,15.73219823,0.0001225,53.2145,191.8164,62.9087,297.2058,9.6867e-05,0.00013007,0.0,0 STARLINK-5422,1 54804U 22175AY  23009.90795620  .00013007  00000-0  96867-4 0  9991,2 54804  53.2145 191.8164 0001225  62.9087 297.2058 15.73219823  5532,6727.839,91.532,350.528,348.879,0.0
54804.0,STARLINK-5422,PAYLOAD,2023-01-10 05:24:51,15.73210538,6.7e-05,53.2138,190.2449,98.0803,262.0293,5.015600000000001e-05,6.428e-05,0.0,0 STARLINK-5422,1 54804U 22175AY  23010.22559419  .00006428  00000-0  50156-4 0  9992,2 54804  53.2138 190.2449 0000670  98.0803 262.0293 15.73210538  3423,6727.865,91.533,350.181,349.279,0.0
54804.0,STARLINK-5422,PAYLOAD,2023-01-10 11:30:46,15.7321533,8.99e-05,53.2126,188.9858,105.1141,254.9978,4.581e-05,5.818e-05,0.0,0 STARLINK-5422,1 54804U 22175AY  23010.47970461  .00005818  00000-0  45810-4 0  9996,2 54804  53.2126 188.9858 0000899 105.1141 254.9978 15.73215330  5625,6727.851,91.532,350.321,349.112,0.0
54804.0,STARLINK-5422,PAYLOAD,2023-01-10 14:33:44,15.73205966,7.509999999999998e-05,53.2158,188.3567,132.3369,227.7714,-6.7316e-07,-7.13e-06,0.0,0 STARLINK-5422,1 54804U 22175AY  23010.60676120 -.00000713  00000-0 -67316-6 0  9994,2 54804  53.2158 188.3567 0000751 132.3369 227.7714 15.73205966  3484,6727.8780000000015,91.533,350.2480000000001,349.23800000000006,0.0
54804.0,STARLINK-5422,PAYLOAD,2023-01-11 04:17:03,15.73216123,6.790000000000001e-05,53.2161,185.5273,144.1127,215.9939,4.7449e-05,6.049e-05,0.0,0 STARLINK-5422,1 54804U 22175AY  23011.17851027  .00006049  00000-0  47449-4 0  9997,2 54804  53.2161 185.5273 0000679 144.1127 215.9939 15.73216123  3578,6727.849,91.532,350.171,349.25699999999995,0.0
54804.0,STARLINK-5422,PAYLOAD,2023-01-11 13:25:56,15.73212251,8.170000000000001e-05,53.216,183.6406,148.7839,211.3229,3.7945e-05,4.712e-05,0.0,0 STARLINK-5422,1 54804U 22175AY  23011.55967793  .00004712  00000-0  37945-4 0  9992,2 54804  53.2160 183.6406 0000817 148.7839 211.3229 15.73212251  5794,6727.86,91.532,350.275,349.176,0.0
54804.0,STARLINK-5422,PAYLOAD,2023-01-11 18:00:22,15.73198393,9.51e-05,53.2141,182.6996,122.2961,237.8151,-1.161e-05,-2.248e-05,0.0,0 STARLINK-5422,1 54804U 22175AY  23011.75026563 -.00002248  00000-0 -11610-4 0  9990,2 54804  53.2141 182.6996 0000951 122.2961 237.8151 15.73198393  3669,6727.9,91.533,350.405,349.125,0.0
54804.0,STARLINK-5422,PAYLOAD,2023-01-11 21:03:20,15.73199195,0.0001356,53.2131,182.0713,127.6053,232.509,-8.881e-06,-1.866e-05,0.0,0 STARLINK-5422,1 54804U 22175AY  23011.87731745 -.00001866  00000-0 -88810-5 0  9990,2 54804  53.2131 182.0713 0001356 127.6053 232.5090 15.73199195  5847,6727.897,91.533,350.675,348.85,0.0
54804.0,STARLINK-5422,PAYLOAD,2023-01-12 19:55:32,15.73210979,0.0001004,53.2145,177.3547,110.9468,249.1659,1.3675e-05,1.301e-05,0.0,0 STARLINK-5422,1 54804U 22175AY  23012.83023869  .00001301  00000-0  13675-4 0  9996,2 54804  53.2145 177.3547 0001004 110.9468 249.1659 15.73210979  3835,6727.864000000001,91.533,350.404,349.05300000000005,0.0
54804.0,STARLINK-5422,PAYLOAD,2023-01-13 12:41:49,15.73216526,0.0001268,53.2134,173.8963,96.573,263.5434,2.0654e-05,2.281e-05,0.0,0 STARLINK-5422,1 54804U 22175AY  23013.52904300  .00002281  00000-0  20654-4 0  9994,2 54804  53.2134 173.8963 0001268  96.5730 263.5434 15.73216526  6107,6727.848000000001,91.532,350.566,348.86,0.0
54804.0,STARLINK-5422,PAYLOAD,2023-01-14 10:02:32,15.73211918,8.39e-05,53.2136,169.4944,123.0312,237.0789,2.0843e-05,2.308e-05,0.0,0 STARLINK-5422,1 54804U 22175AY  23014.41843349  .00002308  00000-0  20843-4 0  9998,2 54804  53.2136 169.4944 0000839 123.0312 237.0789 15.73211918  4088,6727.861,91.532,350.291,349.162,0.0
54804.0,STARLINK-5422,PAYLOAD,2023-01-14 13:05:30,15.73197982,9.96e-05,53.2145,168.8676,81.331,278.7823,-8.6808e-06,-1.837e-05,0.0,0 STARLINK-5422,1 54804U 22175AY  23014.54549580 -.00001837  00000-0 -86808-5 0  9994,2 54804  53.2145 168.8676 0000996  81.3310 278.7823 15.73197982  4109,6727.901,91.533,350.436,349.096,0.0
54804.0,STARLINK-5422,PAYLOAD,2023-01-15 10:26:12,15.73236025,0.0001164,53.2134,164.4644,114.27,245.8442,6.9772e-05,9.198e-05,0.0,0 STARLINK-5422,1 54804U 22175AY  23015.43487061  .00009198  00000-0  69772-4 0  9994,2 54804  53.2134 164.4644 0001164 114.2700 245.8442 15.73236025  4240,6727.792,91.531,350.441,348.874,0.0
54804.0,STARLINK-5422,PAYLOAD,2023-01-15 13:29:11,15.73213763,0.0001017,53.2142,163.8378,91.1023,269.0113,2.3172e-05,2.635e-05,0.0,0 STARLINK-5422,1 54804U 22175AY  23015.56193519  .00002635  00000-0  23172-4 0  9993,2 54804  53.2142 163.8378 0001017  91.1023 269.0113 15.73213763  6423,6727.856,91.532,350.405,349.037,0.0
54804.0,STARLINK-5422,PAYLOAD,2023-01-15 19:35:06,15.73211378,0.0001078,53.2142,162.579,97.1815,262.9327,1.8801e-05,2.021e-05,0.0,0 STARLINK-5422,1 54804U 22175AY  23015.81604625  .00002021  00000-0  18801-4 0  9998,2 54804  53.2142 162.5790 0001078  97.1815 262.9327 15.73211378  4303,6727.863,91.533,350.45300000000003,349.00199999999995,0.0
54804.0,STARLINK-5422,PAYLOAD,2023-01-16 10:49:55,15.73184986,0.0001208,53.214,159.436,94.1857,265.9301,-5.150600000000001e-05,-7.837e-05,0.0,0 STARLINK-5422,1 54804U 22175AY  23016.45133463 -.00007837  00000-0 -51506-4 0  9997,2 54804  53.2140 159.4360 0001208  94.1857 265.9301 15.73184986  4407,6727.938,91.534,350.616,348.99,0.0
54804.0,STARLINK-5422,PAYLOAD,2023-01-16 13:52:52,15.73193601,0.0001036,53.2143,158.80700000000002,86.7934,273.3204,-2.1606e-05,-3.649e-05,0.0,0 STARLINK-5422,1 54804U 22175AY  23016.57838883 -.00003649  00000-0 -21606-4 0  9993,2 54804  53.2143 158.8070 0001036  86.7934 273.3204 15.73193601  6583,6727.9130000000005,91.534,350.475,349.081,0.0
54804.0,STARLINK-5422,PAYLOAD,2023-01-16 15:24:21,15.7319214,0.0001059,53.2141,158.4929,82.4086,277.7054,-2.3332e-05,-3.891e-05,0.0,0 STARLINK-5422,1 54804U 22175AY  23016.64191784 -.00003891  00000-0 -23332-4 0  9990,2 54804  53.2141 158.4929 0001059  82.4086 277.7054 15.73192140  6595,6727.918000000001,91.534,350.495,349.07,0.0
54804.0,STARLINK-5422,PAYLOAD,2023-01-17 02:04:43,15.73188728,0.0001072,53.2142,156.2922,92.1235,267.9908,-1.6549e-05,-2.94e-05,0.0,0 STARLINK-5422,1 54804U 22175AY  23017.08661870 -.00002940  00000-0 -16549-4 0  9993,2 54804  53.2142 156.2922 0001072  92.1235 267.9908 15.73188728  4509,6727.927,91.534,350.514,349.071,0.0
54804.0,STARLINK-5422,PAYLOAD,2023-01-17 11:13:36,15.73223439,0.0001503,53.2138,154.4051,74.5125,285.6061,8.2309e-05,0.00010958,0.0,0 STARLINK-5422,1 54804U 22175AY  23017.46777920  .00010958  00000-0  82309-4 0  9992,2 54804  53.2138 154.4051 0001503  74.5125 285.6061 15.73223439  6720,6727.828,91.532,350.705,348.682,0.0
54804.0,STARLINK-5422,PAYLOAD,2023-01-17 15:48:02,15.73235661,0.0001356,53.2138,153.4633,90.719,269.3986,0.00010734,0.00014493,0.0,0 STARLINK-5422,1 54804U 22175AY  23017.65835676  .00014493  00000-0  10734-3 0  9996,2 54804  53.2138 153.4633 0001356  90.7190 269.3986 15.73235661  4591,6727.794,91.531,350.571,348.746,0.0
54804.0,STARLINK-5422,PAYLOAD,2023-01-18 10:05:47,15.73205456,0.0001034,53.2153,149.6877,135.3378,224.7726,1.5235e-05,1.519e-05,0.0,0 STARLINK-5422,1 54804U 22175AY  23018.42069425  .00001519  00000-0  15235-4 0  9990,2 54804  53.2153 149.6877 0001034 135.3378 224.7726 15.73205456  4712,6727.88,91.533,350.44,349.04900000000004,0.0
54804.0,STARLINK-5422,PAYLOAD,2023-01-18 19:14:40,15.73210411,0.0001807,53.2139,147.8036,39.6629,320.4523,1.7247999999999998e-05,1.801e-05,0.0,0 STARLINK-5422,1 54804U 22175AY  23018.80186333  .00001801  00000-0  17248-4 0  9990,2 54804  53.2139 147.8036 0001807  39.6629 320.4523 15.73210411  6938,6727.865,91.533,350.946,348.515,0.0
